METHANESAT              
1 59101U 24043D   25353.79423191  .00001784  00000+0  16077-3 0  9996
2 59101  97.8219 119.3887 0009380 248.2572 111.7652 14.96848020 97800
GOSAT-GW (IBUKI GW)     
1 64694U 25141A   25354.28242215  .00000430  00000+0  84143-4 0  9997
2 64694  98.0435 289.6587 0001440  84.0710 276.0659 14.67565151 25603
GHGSAT-C1               
1 46278U 20061G   25354.28239243  .00018372  00000+0  23477-3 0  9994
2 46278  97.2313  70.0400 0001559  25.1110 335.0222 15.59296865295497
GHGSAT-C12              
1 64529U 25135B   25354.13814293  .00002998  00000+0  14764-3 0  9994
2 64529  97.4618 105.9240 0006508  81.3410 278.8562 15.18729243 27638
GHGSAT-C13              
1 64548U 25135W   25354.16044066  .00002745  00000+0  13253-3 0  9993
2 64548  97.4643 106.2540 0002179  56.7449 303.3995 15.19504777 27652
GHGSAT-C2               
1 47509U 21006DA  25353.87087441  .00004937  00000+0  14671-3 0  9995
2 47509  97.2435  39.2184 0007033  92.9975 267.2074 15.35199825272319
GHGSAT-C3               
1 52737U 22057F   25354.32704622  .00005382  00000+0  17978-3 0  9997
2 52737  97.6345 128.9586 0007117  44.6283 315.5529 15.31456115198136
GHGSAT-C4               
1 52746U 22057Q   25354.28078862  .00005277  00000+0  17637-3 0  9997
2 52746  97.6273 127.9226 0007076  31.3890 328.7772 15.31446073198135
GHGSAT-C5               
1 52744U 22057N   25354.29808472  .00005150  00000+0  17224-3 0  9996
2 52744  97.6432 130.2939 0008027  40.2396 319.9438 15.31434097198139
GHGSAT-C6               
1 56204U 23054AC  25354.25070986  .00010222  00000+0  20344-3 0  9999
2 56204  97.3181 256.5641 0007502 351.2401   8.8717 15.47090797150733
GHGSAT-C7               
1 56209U 23054AH  25354.24478536  .00008191  00000+0  17288-3 0  9991
2 56209  97.3139 255.7646 0007664 342.4898  17.6086 15.45440181150717
GHGSAT-C8               
1 56186U 23054J   25354.22353491  .00010090  00000+0  20076-3 0  9995
2 56186  97.3144 255.9607 0006132  18.7231 341.4243 15.47111961150715
SENTINEL-5P             
1 42969U 17064A   25354.09737693  .00000041  00000+0  40478-4 0  9992
2 42969  98.7796 292.6165 0001016  90.4056 269.7237 14.19519194424157
ENMAP                   
1 52159U 22033C   25354.27386061  .00000687  00000+0  10972-3 0  9996
2 52159  97.9801  74.0800 0001282  84.4310 275.7045 14.74956672200283
PRISMA                  
1 44072U 19015A   25354.28508025  .00000527  00000+0  70221-4 0  9991
2 44072  97.8698  66.6363 0001195  81.9146 278.2203 14.83632637365529
SENTINEL-2A             
1 40697U 15028A   25354.26365270  .00000061  00000+0  39949-4 0  9996
2 40697  98.5745  66.6905 0001064  89.3023 270.8282 14.30807859548140
SENTINEL-2B             
1 42063U 17013A   25354.25644166  .00000109  00000+0  58125-4 0  9994
2 42063  98.5715  66.5974 0001178  93.6675 266.4643 14.30813507459058
SENTINEL-2C             
1 60989U 24157A   25354.15165857  .00000104  00000+0  56239-4 0  9991
2 60989  98.5676  66.5273 0001203  95.8300 264.3020 14.30820273 67386
LANDSAT 8               
1 39084U 13008A   25354.14134903  .00000292  00000+0  74801-4 0  9996
2 39084  98.2063  62.1053 0001082  90.5011 269.6312 14.57109573671823
LANDSAT 9               
1 49260U 21088A   25354.17578454  .00000310  00000+0  78911-4 0  9993
2 49260  98.2085  62.1788 0001104  91.1503 268.9822 14.57105039224934
